NORAD_CAT_ID,OBJECT_NAME,OBJECT_TYPE,EPOCH,MEAN_MOTION,ECCENTRICITY,INCLINATION,RA_OF_ASC_NODE,ARG_OF_PERICENTER,MEAN_ANOMALY,BSTAR,MEAN_MOTION_DOT,MEAN_MOTION_DDOT,TLE_LINE0,TLE_LINE1,TLE_LINE2,SEMIMAJOR_AXIS,PERIOD,APOGEE,PERIGEE,DECAYED
51810.0,STARLINK-3613,PAYLOAD,2022-07-25 14:00:01,15.08829893,0.0001445,53.2162,148.7624,85.699,350.8281,-0.00025092,-4.278e-05,0.0,0 STARLINK-3613,1 51810U 22017AU  22206.58334491 -.00004278  00000-0 -25092-3 0  9990,2 51810  53.2162 148.7624 0001445  85.6990 350.8281 15.08829893  1303,6917.911,95.438,540.776,538.7769999999998,0.0
51810.0,STARLINK-3613,PAYLOAD,2022-07-25 22:00:00,15.08847549,0.0001529,53.2164,147.2661,87.7498,0.3534,-0.00068693,-0.00011206,0.0,0 STARLINK-3613,1 51810U 22017AU  22206.91667824 -.00011206  00000-0 -68693-3 0  9999,2 51810  53.2164 147.2661 0001529  87.7498   0.3534 15.08847549 24502,6917.857,95.437,540.78,538.665,0.0
51810.0,STARLINK-3613,PAYLOAD,2022-07-26 14:00:01,15.08842326,0.0001491,53.217,144.2734,85.1739,26.1238,0.0002935,4.386e-05,0.0,0 STARLINK-3613,1 51810U 22017AU  22207.58334491  .00004386  00000-0  29350-3 0  9990,2 51810  53.2170 144.2734 0001491  85.1739  26.1238 15.08842326  1303,6917.873000000001,95.437,540.77,538.707,0.0
51810.0,STARLINK-3613,PAYLOAD,2022-07-26 22:00:00,15.08867715,0.000156,53.2172,142.7772,86.5562,36.3361,-0.0012509,-0.00020156,0.0,0 STARLINK-3613,1 51810U 22017AU  22207.91667824 -.00020156  00000-0 -12509-2 0  9998,2 51810  53.2172 142.7772 0001560  86.5562  36.3361 15.08867715 24658,6917.795999999999,95.436,540.74,538.582,0.0
51810.0,STARLINK-3613,PAYLOAD,2022-07-27 14:00:01,15.08828706,0.0001415,53.2177,139.7845,84.9845,61.1298,0.00076582,0.00011917,0.0,0 STARLINK-3613,1 51810U 22017AU  22208.58334491  .00011917  00000-0  76582-3 0  9998,2 51810  53.2177 139.7845 0001415  84.9845  61.1298 15.08828706  1304,6917.915,95.438,540.759,538.8009999999998,0.0
51810.0,STARLINK-3613,PAYLOAD,2022-07-27 22:00:00,15.08858355,0.0001496999999999,53.218,138.2884,86.1781,71.5207,-0.0011302999999999,-0.00018241,0.0,0 STARLINK-3613,1 51810U 22017AU  22208.91667824 -.00018241  00000-0 -11303-2 0  9992,2 51810  53.2180 138.2884 0001497  86.1781  71.5207 15.08858355  1306,6917.824000000001,95.436,540.725,538.654,0.0
51810.0,STARLINK-3613,PAYLOAD,2022-07-28 04:00:00,15.08834856,0.0001529,53.218,137.1675,78.7347,357.6732,0.0012849,0.00020217,0.0,0 STARLINK-3613,1 51810U 22017AU  22209.16667824  .00020217  00000-0  12849-2 0  9990,2 51810  53.2180 137.1675 0001529  78.7347 357.6732 15.08834856 24848,6917.896,95.438,540.819,538.703,0.0
51810.0,STARLINK-3613,PAYLOAD,2022-07-28 14:00:01,15.08837478,0.0001347,53.2181,135.2956,86.1871,94.7299,-0.00087041,-0.00014113,0.0,0 STARLINK-3613,1 51810U 22017AU  22209.58334491 -.00014113  00000-0 -87041-3 0  9994,2 51810  53.2181 135.2956 0001347  86.1871  94.7299 15.08837478  1309,6917.888000000001,95.438,540.685,538.821,0.0
51810.0,STARLINK-3613,PAYLOAD,2022-07-28 22:00:00,15.08845972,0.0001375,53.2183,133.7999,86.8321,105.6666,-0.0013315,-0.0002142,0.0,0 STARLINK-3613,1 51810U 22017AU  22209.91667824 -.00021420  00000-0 -13315-2 0  9991,2 51810  53.2183 133.7999 0001375  86.8321 105.6666 15.08845972 24964,6917.861999999999,95.437,540.678,538.776,0.0
51810.0,STARLINK-3613,PAYLOAD,2022-07-29 14:00:01,15.08829877,0.0001346,53.2181,130.8069,88.0631,127.6248,0.00087174,0.00013609,0.0,0 STARLINK-3613,1 51810U 22017AU  22210.58334491  .00013609  00000-0  87174-3 0  9990,2 51810  53.2181 130.8069 0001346  88.0631 127.6248 15.08829877 25062,6917.911,95.438,540.707,538.845,0.0
51810.0,STARLINK-3613,PAYLOAD,2022-07-29 22:00:00,15.08847474,0.0001468,53.2182,129.3114,87.9058,139.369,-0.0030413,-0.00048375,0.0,0 STARLINK-3613,1 51810U 22017AU  22210.91667824 -.00048375  00000-0 -30413-2 0  9999,2 51810  53.2182 129.3114 0001468  87.9058 139.3690 15.08847474  1308,6917.858,95.437,540.738,538.707,0.0
51810.0,STARLINK-3613,PAYLOAD,2022-07-30 06:00:00,15.088018599999998,0.0001498,53.2177,127.8162,80.4744,158.3861,0.0024359,0.00038652,0.0,0 STARLINK-3613,1 51810U 22017AU  22211.25001157  .00038652  00000-0  24359-2 0  9995,2 51810  53.2177 127.8162 0001498  80.4744 158.3861 15.08801860 25161,6917.996999999999,95.44,540.898,538.826,0.0
51810.0,STARLINK-3613,PAYLOAD,2022-07-30 14:00:01,15.08804393,0.000146,53.2177,126.3182,90.348,160.0863,0.0021000999999999,0.00033261,0.0,0 STARLINK-3613,1 51810U 22017AU  22211.58334491  .00033261  00000-0  21001-2 0  9993,2 51810  53.2177 126.3182 0001460  90.3480 160.0863 15.08804393  1309,6917.989000000001,95.44,540.864,538.844,0.0
51810.0,STARLINK-3613,PAYLOAD,2022-07-30 22:00:00,15.08841302,0.0001524,53.2176,124.8229,89.4147,172.5832,-0.001617,-0.00025931,0.0,0 STARLINK-3613,1 51810U 22017AU  22211.91667824 -.00025931  00000-0 -16170-2 0  9997,2 51810  53.2176 124.8229 0001524  89.4147 172.5832 15.08841302 25269,6917.876,95.437,540.7959999999998,538.687,0.0
51810.0,STARLINK-3613,PAYLOAD,2022-07-31 14:00:01,15.08811143,0.0001506,53.217,121.8294,91.8336,193.3392,0.0025182,0.00039985,0.0,0 STARLINK-3613,1 51810U 22017AU  22212.58334491  .00039985  00000-0  25182-2 0  9997,2 51810  53.2170 121.8294 0001506  91.8336 193.3392 15.08811143 25362,6917.969,95.439,540.875,538.7919999999998,0.0
51810.0,STARLINK-3613,PAYLOAD,2022-07-31 22:00:00,15.08850248,0.000157,53.217,120.3341,89.4712,207.2763,-0.0015886,-0.00025489,0.0,0 STARLINK-3613,1 51810U 22017AU  22212.91667824 -.00025489  00000-0 -15886-2 0  9999,2 51810  53.2170 120.3341 0001570  89.4712 207.2763 15.08850248  1305,6917.849,95.437,540.8,538.628,0.0
51810.0,STARLINK-3613,PAYLOAD,2022-08-01 04:00:00,15.08815705,0.0001575,53.2169,119.2128,82.75399999999998,132.6976,0.0028776,0.00045776,0.0,0 STARLINK-3613,1 51810U 22017AU  22213.16667824  .00045776  00000-0  28776-2 0  9998,2 51810  53.2169 119.2128 0001575  82.7540 132.6976 15.08815705 25451,6917.955,95.439,540.909,538.73,0.0
51810.0,STARLINK-3613,PAYLOAD,2022-08-01 14:00:01,15.08820183,0.0001546,53.2166,117.3403,91.9854,227.9622,0.0029138,0.00046365,0.0,0 STARLINK-3613,1 51810U 22017AU  22213.58334491  .00046365  00000-0  29138-2 0  9993,2 51810  53.2166 117.3403 0001546  91.9854 227.9622 15.08820183  1301,6917.941,95.439,540.875,538.736,0.0
51810.0,STARLINK-3613,PAYLOAD,2022-08-01 22:00:00,15.08861776,0.0001619,53.2167,115.8449,88.2609,243.2751,-0.0015670999999999,-0.00025157,0.0,0 STARLINK-3613,1 51810U 22017AU  22213.91667824 -.00025157  00000-0 -15671-2 0  9994,2 51810  53.2167 115.8449 0001619  88.2609 243.2751 15.08861776 25564,6917.814,95.436,540.799,538.559,0.0
51810.0,STARLINK-3613,PAYLOAD,2022-08-02 14:00:01,15.08809907,0.0001489,53.2166,112.8508,91.7933,262.9721,0.0023469,0.0003723,0.0,0 STARLINK-3613,1 51810U 22017AU  22214.58334491  .00037230  00000-0  23469-2 0  9996,2 51810  53.2166 112.8508 0001489  91.7933 262.9721 15.08809907 25664,6917.972,95.439,540.867,538.807,0.0
51810.0,STARLINK-3613,PAYLOAD,2022-08-03 04:00:00,15.08812912,0.0001545,53.2168,110.2341,81.0361,204.0002,0.0029779,0.00047389,0.0,0 STARLINK-3613,1 51810U 22017AU  22215.16667824  .00047389  00000-0  29779-2 0  9996,2 51810  53.2168 110.2341 0001545  81.0361 204.0002 15.08812912 25752,6917.9630000000025,95.439,540.8969999999998,538.759,0.0
51810.0,STARLINK-3613,PAYLOAD,2022-08-03 14:00:01,15.08817486,0.0001511,53.2169,108.3614,91.1661,298.3635,0.0032244,0.00051371,0.0,0 STARLINK-3613,1 51810U 22017AU  22215.58334491  .00051371  00000-0  32244-2 0  9990,2 51810  53.2169 108.3614 0001511  91.1661 298.3635 15.08817486  1306,6917.949000000001,95.439,540.86,538.769,0.0
51810.0,STARLINK-3613,PAYLOAD,2022-08-03 20:00:01,15.08861972,0.0001576999999999,53.2172,107.2399,88.8083,219.4064,-0.0013519,-0.00021752,0.0,0 STARLINK-3613,1 51810U 22017AU  22215.83334491 -.00021752  00000-0 -13519-2 0  9994,2 51810  53.2172 107.2399 0001577  88.8083 219.4064 15.08861972 25856,6917.813,95.436,540.769,538.587,0.0
51810.0,STARLINK-3613,PAYLOAD,2022-08-03 22:00:01,15.08859878,0.0001585999999999,53.2172,106.8663,85.6138,315.5678,-0.0014784,-0.00023752,0.0,0 STARLINK-3613,1 51810U 22017AU  22215.91668981 -.00023752  00000-0 -14784-2 0  9994,2 51810  53.2172 106.8663 0001586  85.6138 315.5678 15.08859878  1306,6917.82,95.436,540.7819999999998,538.587,0.0
51810.0,STARLINK-3613,PAYLOAD,2022-08-04 14:00:01,15.08807836,0.0001419,53.2174,103.872,92.1224,332.222,0.0030618999999999,0.00048736,0.0,0 STARLINK-3613,1 51810U 22017AU  22216.58334491  .00048736  00000-0  30619-2 0  9996,2 51810  53.2174 103.8720 0001419  92.1224 332.2220 15.08807836  1309,6917.979,95.44,540.825,538.862,0.0
51810.0,STARLINK-3613,PAYLOAD,2022-08-04 20:00:01,15.08850272,0.0001469,53.2177,102.7507,88.8702,254.1493,-0.001568,-0.00025163,0.0,0 STARLINK-3613,1 51810U 22017AU  22216.83334491 -.00025163  00000-0 -15680-2 0  9996,2 51810  53.2177 102.7507 0001469  88.8702 254.1493 15.08850272 26001,6917.849,95.437,540.73,538.698,0.0
51810.0,STARLINK-3613,PAYLOAD,2022-08-04 22:00:00,15.08845805,0.0001486999999999,53.2175,102.3772,85.7388,350.1815,-0.0014239,-0.00022881,0.0,0 STARLINK-3613,1 51810U 22017AU  22216.91667824 -.00022881  00000-0 -14239-2 0  9997,2 51810  53.2175 102.3772 0001487  85.7388 350.1815 15.08845805  1302,6917.863,95.437,540.756,538.6990000000002,0.0
51810.0,STARLINK-3613,PAYLOAD,2022-08-05 14:00:01,15.08838429,0.000147,53.2177,99.3829,93.3864,5.7937,0.0003736,5.663e-05,0.0,0 STARLINK-3613,1 51810U 22017AU  22217.58335648  .00005663  00000-0  37360-3 0  9995,2 51810  53.2177  99.3829 0001470  93.3864   5.7937 15.08838429 26116,6917.885,95.438,540.7669999999998,538.7330000000002,0.0
51810.0,STARLINK-3613,PAYLOAD,2022-08-05 22:00:00,15.08836352,0.0001593,53.2178,97.8882,87.5319,23.1835,-0.0016466999999999,-0.00026397,0.0,0 STARLINK-3613,1 51810U 22017AU  22217.91667824 -.00026397  00000-0 -16467-2 0  9999,2 51810  53.2178  97.8882 0001593  87.5319  23.1835 15.08836352  1303,6917.892,95.438,540.859,538.655,0.0
